{
  "type": "FeatureCollection",
  "features": [
    {
      "type": "Feature",
      "properties": {
        "norad_id": 66842,
        "name": "STARLINK-35769",
        "group": "last-30-days",
        "lat": 36.39544213967012,
        "lon": -26.193831179208814,
        "alt_km": 407.847625653857,
        "timestamp": "2025-12-23T07:45:08.117004+00:00",
        "meta_object_name": "STARLINK-35769",
        "meta_object_id": "2025-280X",
        "meta_epoch": "2025-12-22T22:00:03.000096",
        "meta_mean_motion": 15.5251726,
        "meta_eccentricity": 0.00032301,
        "meta_inclination": 70.0001,
        "meta_ra_of_asc_node": 170.4929,
        "meta_arg_of_pericenter": 276.4969,
        "meta_mean_anomaly": 114.0771,
        "meta_ephemeris_type": 0,
        "meta_classification_type": "U",
        "meta_norad_cat_id": 66842,
        "meta_element_set_no": 999,
        "meta_rev_at_epoch": 453,
        "meta_bstar": -9.5894128e-05,
        "meta_mean_motion_dot": -6.062e-05,
        "meta_mean_motion_ddot": 0,
        "tle_line1": "1 66842U 25280X   25356.91670139 -.00006062  00000+0 -95894-4 0  9994",
        "tle_line2": "2 66842  70.0001 170.4929 0003230 276.4969 114.0771 15.52517260  4536"
      },
      "geometry": {
        "type": "Point",
        "coordinates": [
          -26.193831179208814,
          36.39544213967012
        ]
      }
    },
    {
      "type": "Feature",
      "properties": {
        "norad_id": 66843,
        "name": "STARLINK-35997",
        "group": "last-30-days",
        "lat": 32.908515729766606,
        "lon": -24.25815582867746,
        "alt_km": 408.2396707036123,
        "timestamp": "2025-12-23T07:45:08.117015+00:00",
        "meta_object_name": "STARLINK-35997",
        "meta_object_id": "2025-280Y",
        "meta_epoch": "2025-12-22T22:00:03.000096",
        "meta_mean_motion": 15.52517473,
        "meta_eccentricity": 0.00033807,
        "meta_inclination": 70.0003,
        "meta_ra_of_asc_node": 170.4874,
        "meta_arg_of_pericenter": 272.1572,
        "meta_mean_anomaly": 122.2535,
        "meta_ephemeris_type": 0,
        "meta_classification_type": "U",
        "meta_norad_cat_id": 66843,
        "meta_element_set_no": 999,
        "meta_rev_at_epoch": 453,
        "meta_bstar": -0.00015820417,
        "meta_mean_motion_dot": -9.888e-05,
        "meta_mean_motion_ddot": 0,
        "tle_line1": "1 66843U 25280Y   25356.91670139 -.00009888  00000+0 -15820-3 0  9994",
        "tle_line2": "2 66843  70.0003 170.4874 0003380 272.1572 122.2535 15.52517473  4532"
      },
      "geometry": {
        "type": "Point",
        "coordinates": [
          -24.25815582867746,
          32.908515729766606
        ]
      }
    },
    {
      "type": "Feature",
      "properties": {
        "norad_id": 66844,
        "name": "STARLINK-36073",
        "group": "last-30-days",
        "lat": 34.658124168964214,
        "lon": -25.20689935088032,
        "alt_km": 408.1125327293421,
        "timestamp": "2025-12-23T07:45:08.117027+00:00",
        "meta_object_name": "STARLINK-36073",
        "meta_object_id": "2025-280Z",
        "meta_epoch": "2025-12-22T22:00:03.000096",
        "meta_mean_motion": 15.52514429,
        "meta_eccentricity": 0.0003371,
        "meta_inclination": 70.0002,
        "meta_ra_of_asc_node": 170.4901,
        "meta_arg_of_pericenter": 275.8893,
        "meta_mean_anomaly": 116.5994,
        "meta_ephemeris_type": 0,
        "meta_classification_type": "U",
        "meta_norad_cat_id": 66844,
        "meta_element_set_no": 999,
        "meta_rev_at_epoch": 453,
        "meta_bstar": 1.7709804e-05,
        "meta_mean_motion_dot": 9.22e-06,
        "meta_mean_motion_ddot": 0,
        "tle_line1": "1 66844U 25280Z   25356.91670139  .00000922  00000+0  17710-4 0  9994",
        "tle_line2": "2 66844  70.0002 170.4901 0003371 275.8893 116.5994 15.52514429  4532"
      },
      "geometry": {
        "type": "Point",
        "coordinates": [
          -25.20689935088032,
          34.658124168964214
        ]
      }
    },
    {
      "type": "Feature",
      "properties": {
        "norad_id": 66845,
        "name": "STARLINK-36068",
        "group": "last-30-days",
        "lat": 27.626167517562827,
        "lon": -21.620908409220252,
        "alt_km": 408.9999979896302,
        "timestamp": "2025-12-23T07:45:08.117037+00:00",
        "meta_object_name": "STARLINK-36068",
        "meta_object_id": "2025-280AA",
        "meta_epoch": "2025-12-22T22:00:03.000096",
        "meta_mean_motion": 15.52517908,
        "meta_eccentricity": 0.0003319,
        "meta_inclination": 70.0003,
        "meta_ra_of_asc_node": 170.4807,
        "meta_arg_of_pericenter": 276.0321,
        "meta_mean_anomaly": 124.123,
        "meta_ephemeris_type": 0,
        "meta_classification_type": "U",
        "meta_norad_cat_id": 66845,
        "meta_element_set_no": 999,
        "meta_rev_at_epoch": 453,
        "meta_bstar": -9.3628431e-05,
        "meta_mean_motion_dot": -5.923e-05,
        "meta_mean_motion_ddot": 0,
        "tle_line1": "1 66845U 25280AA  25356.91670139 -.00005923  00000+0 -93628-4 0  9995",
        "tle_line2": "2 66845  70.0003 170.4807 0003319 276.0321 124.1230 15.52517908  4533"
      },
      "geometry": {
        "type": "Point",
        "coordinates": [
          -21.620908409220252,
          27.626167517562827
        ]
      }
    },
    {
      "type": "Feature",
      "properties": {
        "norad_id": 66846,
        "name": "STARLINK-36055",
        "group": "last-30-days",
        "lat": 31.15262566543527,
        "lon": -23.346084584628876,
        "alt_km": 408.51865843044015,
        "timestamp": "2025-12-23T07:45:08.117049+00:00",
        "meta_object_name": "STARLINK-36055",
        "meta_object_id": "2025-280AB",
        "meta_epoch": "2025-12-22T22:00:03.000096",
        "meta_mean_motion": 15.52518855,
        "meta_eccentricity": 0.00033178,
        "meta_inclination": 70.0003,
        "meta_ra_of_asc_node": 170.4854,
        "meta_arg_of_pericenter": 274.9155,
        "meta_mean_anomaly": 121.4088,
        "meta_ephemeris_type": 0,
        "meta_classification_type": "U",
        "meta_norad_cat_id": 66846,
        "meta_element_set_no": 999,
        "meta_rev_at_epoch": 453,
        "meta_bstar": -0.0001492533,
        "meta_mean_motion_dot": -9.339e-05,
        "meta_mean_motion_ddot": 0,
        "tle_line1": "1 66846U 25280AB  25356.91670139 -.00009339  00000+0 -14925-3 0  9993",
        "tle_line2": "2 66846  70.0003 170.4854 0003317 274.9155 121.4088 15.52518855  4539"
      },
      "geometry": {
        "type": "Point",
        "coordinates": [
          -23.346084584628876,
          31.15262566543527
        ]
      }
    },
    {
      "type": "Feature",
      "properties": {
        "norad_id": 66847,
        "name": "STARLINK-36061",
        "group": "last-30-days",
        "lat": 29.396432381372716,
        "lon": -22.47126668171844,
        "alt_km": 408.5254245586266,
        "timestamp": "2025-12-23T07:45:08.117061+00:00",
        "meta_object_name": "STARLINK-36061",
        "meta_object_id": "2025-280AC",
        "meta_epoch": "2025-12-22T22:00:03.000096",
        "meta_mean_motion": 15.52446984,
        "meta_eccentricity": 0.00031277,
        "meta_inclination": 70.0002,
        "meta_ra_of_asc_node": 170.4824,
        "meta_arg_of_pericenter": 272.8954,
        "meta_mean_anomaly": 125.3688,
        "meta_ephemeris_type": 0,
        "meta_classification_type": "U",
        "meta_norad_cat_id": 66847,
        "meta_element_set_no": 999,
        "meta_rev_at_epoch": 448,
        "meta_bstar": 0.0019203527,
        "meta_mean_motion_dot": 0.00119454,
        "meta_mean_motion_ddot": 0,
        "tle_line1": "1 66847U 25280AC  25356.91670139  .00119454  00000+0  19204-2 0  9996",
        "tle_line2": "2 66847  70.0002 170.4824 0003127 272.8954 125.3688 15.52446984  4485"
      },
      "geometry": {
        "type": "Point",
        "coordinates": [
          -22.47126668171844,
          29.396432381372716
        ]
      }
    },
    {
      "type": "Feature",
      "properties": {
        "norad_id": 66848,
        "name": "STARLINK-36091",
        "group": "last-30-days",
        "lat": -29.36644312717179,
        "lon": -84.93969542554187,
        "alt_km": 382.2505923888284,
        "timestamp": "2025-12-23T07:45:08.117071+00:00",
        "meta_object_name": "STARLINK-36091",
        "meta_object_id": "2025-281A",
        "meta_epoch": "2025-12-22T22:00:03.000096",
        "meta_mean_motion": 15.64390969,
        "meta_eccentricity": 0.000126,
        "meta_inclination": 43.0006,
        "meta_ra_of_asc_node": 60.338,
        "meta_arg_of_pericenter": 283.4134,
        "meta_mean_anomaly": 172.8445,
        "meta_ephemeris_type": 0,
        "meta_classification_type": "U",
        "meta_norad_cat_id": 66848,
        "meta_element_set_no": 999,
        "meta_rev_at_epoch": 302,
        "meta_bstar": -0.023370809,
        "meta_mean_motion_dot": -0.02022973,
        "meta_mean_motion_ddot": 0,
        "tle_line1": "1 66848U 25281A   25356.91670139 -.02022973  00000+0 -23371-1 0  9990",
        "tle_line2": "2 66848  43.0006  60.3380 0001260 283.4134 172.8445 15.64390969  3029"
      },
      "geometry": {
        "type": "Point",
        "coordinates": [
          -84.93969542554187,
          -29.36644312717179
        ]
      }
    }
  ]
}